INMARSAT 4-F1           
1 28628U 05009A   26116.49489222  .00000023  00000+0  00000+0 0  9999
2 28628   5.1013  42.6929 0002868 349.2000 178.8589  1.00274066 77154
DIRECTV 8               
1 28659U 05019A   26116.52055068  .00000000  00000+0  00000+0 0  9990
2 28659   0.0140 229.3551 0003207 173.3416 240.1704  1.00270938 76552
GALAXY 28 (G-28)        
1 28702U 05022A   26116.41735837 -.00000209  00000+0  00000+0 0  9992
2 28702   3.1678  79.5518 0003127 320.7798 297.2241  1.00276457 51454
THAICOM 4               
1 28786U 05028A   26116.52154421 -.00000374  00000+0  00000+0 0  9999
2 28786   0.1129  84.2670 0001983 314.8393 122.6713  1.00270853 51739
ANIK F1R                
1 28868U 05036A   26116.47274640 -.00000084  00000+0  00000+0 0  9997
2 28868   4.1826  77.2021 0003413 331.3808 228.8012  1.00272164 45938
SYRACUSE 3A             
1 28885U 05041B   26116.50316654  .00000122  00000+0  00000+0 0  9990
2 28885   4.5125  76.4599 0003445 315.3524  50.0279  1.00270453 75231
INMARSAT 4-F2           
1 28899U 05044A   26116.20530829 -.00000271  00000+0  00000+0 0  9993
2 28899   5.0300  43.7593 0002735 348.6277  39.1900  1.00272173 75008
METEOSAT-9 (MSG-2)      
1 28912U 05049B   26115.93261958  .00000116  00000+0  00000+0 0  9994
2 28912   9.2466  54.6723 0000497 356.0130 184.6448  1.00274462  6474
EUTELSAT 174A           
1 28924U 05052A   26116.53948491  .00000000  00000+0  00000+0 0  9994
2 28924   4.0911  77.1431 0006433 318.4313 187.1644  1.00272683 51819
ECHOSTAR 10             
1 28935U 06003A   26116.50253042 -.00000068  00000+0  00000+0 0  9996
2 28935   0.0481  53.4698 0002208 298.9155 292.8302  1.00271844 73944
SPAINSAT                
1 28945U 06007A   26115.49089353 -.00000230  00000+0  00000+0 0  9991
2 28945   0.4281  87.2517 0004931 300.9722 331.7938  1.00274201 73691
JCSAT-5A                
1 29045U 06010A   26116.43794906 -.00000339  00000+0  00000+0 0  9999
2 29045   0.9769  84.7409 0001739 343.4686  75.9335  1.00269944 73253
ASTRA 1KR               
1 29055U 06012A   26116.32058611  .00000107  00000+0  00000+0 0  9998
2 29055   0.3412  82.5577 0003451 310.6606 315.5088  1.00273432 45171
GALAXY 16 (G-16)        
1 29236U 06023A   26116.47439308 -.00000140  00000+0  00000+0 0  9991
2 29236   0.0216 228.5821 0003101 180.5205 237.1614  1.00274242 72451
EUTELSAT 33F            
1 29270U 06032A   26116.50056654  .00000145  00000+0  00000+0 0  9996
2 29270   1.5298  82.7751 0003534 313.1429  31.8951  1.00274400 46785
JCSAT-3A                
1 29272U 06033A   26116.53629881 -.00000357  00000+0  00000+0 0  9996
2 29272   0.0450  69.9740 0002022 323.2996 142.3255  1.00271051 47222
SYRACUSE 3B             
1 29273U 06033B   26116.50975323  .00000022  00000+0  00000+0 0  9997
2 29273   2.7737  80.7849 0004429 288.0841 108.7115  0.98624554 72158
