[{"OBJECT_NAME":"INMARSAT 4-F1","OBJECT_ID":"2005-009A","EPOCH":"2026-04-26T11:52:38.687808","MEAN_MOTION":1.00274066,"ECCENTRICITY":0.0002868,"INCLINATION":5.1013,"RA_OF_ASC_NODE":42.6929,"ARG_OF_PERICENTER":349.2,"MEAN_ANOMALY":178.8589,"EPHEMERIS_TYPE":0,"CLASSIFICATION_TYPE":"U","NORAD_CAT_ID":28628,"ELEMENT_SET_NO":999,"REV_AT_EPOCH":7715,"BSTAR":0,"MEAN_MOTION_DOT":2.3e-7,"MEAN_MOTION_DDOT":0},{"OBJECT_NAME":"DIRECTV 8","OBJECT_ID":"2005-019A","EPOCH":"2026-04-26T12:29:35.578752","MEAN_MOTION":1.00270938,"ECCENTRICITY":0.0003207,"INCLINATION":0.014,"RA_OF_ASC_NODE":229.3551,"ARG_OF_PERICENTER":173.3416,"MEAN_ANOMALY":240.1704,"EPHEMERIS_TYPE":0,"CLASSIFICATION_TYPE":"U","NORAD_CAT_ID":28659,"ELEMENT_SET_NO":999,"REV_AT_EPOCH":7655,"BSTAR":0,"MEAN_MOTION_DOT":0,"MEAN_MOTION_DDOT":0},{"OBJECT_NAME":"GALAXY 28 (G-28)","OBJECT_ID":"2005-022A","EPOCH":"2026-04-26T10:00:59.763168","MEAN_MOTION":1.00276457,"ECCENTRICITY":0.0003127,"INCLINATION":3.1678,"RA_OF_ASC_NODE":79.5518,"ARG_OF_PERICENTER":320.7798,"MEAN_ANOMALY":297.2241,"EPHEMERIS_TYPE":0,"CLASSIFICATION_TYPE":"U","NORAD_CAT_ID":28702,"ELEMENT_SET_NO":999,"REV_AT_EPOCH":5145,"BSTAR":0,"MEAN_MOTION_DOT":-2.09e-6,"MEAN_MOTION_DDOT":0},{"OBJECT_NAME":"THAICOM 4","OBJECT_ID":"2005-028A","EPOCH":"2026-04-26T12:31:01.419744","MEAN_MOTION":1.00270853,"ECCENTRICITY":0.0001983,"INCLINATION":0.1129,"RA_OF_ASC_NODE":84.267,"ARG_OF_PERICENTER":314.8393,"MEAN_ANOMALY":122.6713,"EPHEMERIS_TYPE":0,"CLASSIFICATION_TYPE":"U","NORAD_CAT_ID":28786,"ELEMENT_SET_NO":999,"REV_AT_EPOCH":5173,"BSTAR":0,"MEAN_MOTION_DOT":-3.74e-6,"MEAN_MOTION_DDOT":0},{"OBJECT_NAME":"ANIK F1R","OBJECT_ID":"2005-036A","EPOCH":"2026-04-26T11:20:45.288960","MEAN_MOTION":1.00272164,"ECCENTRICITY":0.0003413,"INCLINATION":4.1826,"RA_OF_ASC_NODE":77.2021,"ARG_OF_PERICENTER":331.3808,"MEAN_ANOMALY":228.8012,"EPHEMERIS_TYPE":0,"CLASSIFICATION_TYPE":"U","NORAD_CAT_ID":28868,"ELEMENT_SET_NO":999,"REV_AT_EPOCH":4593,"BSTAR":0,"MEAN_MOTION_DOT":-8.4e-7,"MEAN_MOTION_DDOT":0},{"OBJECT_NAME":"SYRACUSE 3A","OBJECT_ID":"2005-041B","EPOCH":"2026-04-26T12:04:33.589056","MEAN_MOTION":1.00270453,"ECCENTRICITY":0.0003445,"INCLINATION":4.5125,"RA_OF_ASC_NODE":76.4599,"ARG_OF_PERICENTER":315.3524,"MEAN_ANOMALY":50.0279,"EPHEMERIS_TYPE":0,"CLASSIFICATION_TYPE":"U","NORAD_CAT_ID":28885,"ELEMENT_SET_NO":999,"REV_AT_EPOCH":7523,"BSTAR":0,"MEAN_MOTION_DOT":1.22e-6,"MEAN_MOTION_DDOT":0},{"OBJECT_NAME":"INMARSAT 4-F2","OBJECT_ID":"2005-044A","EPOCH":"2026-04-26T04:55:38.636256","MEAN_MOTION":1.00272173,"ECCENTRICITY":0.0002735,"INCLINATION":5.03,"RA_OF_ASC_NODE":43.7593,"ARG_OF_PERICENTER":348.6277,"MEAN_ANOMALY":39.19,"EPHEMERIS_TYPE":0,"CLASSIFICATION_TYPE":"U","NORAD_CAT_ID":28899,"ELEMENT_SET_NO":999,"REV_AT_EPOCH":7500,"BSTAR":0,"MEAN_MOTION_DOT":-2.71e-6,"MEAN_MOTION_DDOT":0},{"OBJECT_NAME":"METEOSAT-9 (MSG-2)","OBJECT_ID":"2005-049B","EPOCH":"2026-04-25T22:22:58.331712","MEAN_MOTION":1.00274462,"ECCENTRICITY":4.974e-5,"INCLINATION":9.2466,"RA_OF_ASC_NODE":54.6723,"ARG_OF_PERICENTER":356.013,"MEAN_ANOMALY":184.6448,"EPHEMERIS_TYPE":0,"CLASSIFICATION_TYPE":"U","NORAD_CAT_ID":28912,"ELEMENT_SET_NO":999,"REV_AT_EPOCH":647,"BSTAR":0,"MEAN_MOTION_DOT":1.16e-6,"MEAN_MOTION_DDOT":0},{"OBJECT_NAME":"EUTELSAT 174A","OBJECT_ID":"2005-052A","EPOCH":"2026-04-26T12:56:51.496224","MEAN_MOTION":1.00272683,"ECCENTRICITY":0.0006433,"INCLINATION":4.0911,"RA_OF_ASC_NODE":77.1431,"ARG_OF_PERICENTER":318.4313,"MEAN_ANOMALY":187.1644,"EPHEMERIS_TYPE":0,"CLASSIFICATION_TYPE":"U","NORAD_CAT_ID":28924,"ELEMENT_SET_NO":999,"REV_AT_EPOCH":5181,"BSTAR":0,"MEAN_MOTION_DOT":0,"MEAN_MOTION_DDOT":0},{"OBJECT_NAME":"ECHOSTAR 10","OBJECT_ID":"2006-003A","EPOCH":"2026-04-26T12:03:38.628288","MEAN_MOTION":1.00271844,"ECCENTRICITY":0.0002208,"INCLINATION":0.0481,"RA_OF_ASC_NODE":53.4698,"ARG_OF_PERICENTER":298.9155,"MEAN_ANOMALY":292.8302,"EPHEMERIS_TYPE":0,"CLASSIFICATION_TYPE":"U","NORAD_CAT_ID":28935,"ELEMENT_SET_NO":999,"REV_AT_EPOCH":7394,"BSTAR":0,"MEAN_MOTION_DOT":-6.8e-7,"MEAN_MOTION_DDOT":0},{"OBJECT_NAME":"SPAINSAT","OBJECT_ID":"2006-007A","EPOCH":"2026-04-25T11:46:53.200992","MEAN_MOTION":1.00274201,"ECCENTRICITY":0.0004931,"INCLINATION":0.4281,"RA_OF_ASC_NODE":87.2517,"ARG_OF_PERICENTER":300.9722,"MEAN_ANOMALY":331.7938,"EPHEMERIS_TYPE":0,"CLASSIFICATION_TYPE":"U","NORAD_CAT_ID":28945,"ELEMENT_SET_NO":999,"REV_AT_EPOCH":7369,"BSTAR":0,"MEAN_MOTION_DOT":-2.3e-6,"MEAN_MOTION_DDOT":0},{"OBJECT_NAME":"JCSAT-5A","OBJECT_ID":"2006-010A","EPOCH":"2026-04-26T10:30:38.798784","MEAN_MOTION":1.00269944,"ECCENTRICITY":0.0001739,"INCLINATION":0.9769,"RA_OF_ASC_NODE":84.7409,"ARG_OF_PERICENTER":343.4686,"MEAN_ANOMALY":75.9335,"EPHEMERIS_TYPE":0,"CLASSIFICATION_TYPE":"U","NORAD_CAT_ID":29045,"ELEMENT_SET_NO":999,"REV_AT_EPOCH":7325,"BSTAR":0,"MEAN_MOTION_DOT":-3.39e-6,"MEAN_MOTION_DDOT":0},{"OBJECT_NAME":"ASTRA 1KR","OBJECT_ID":"2006-012A","EPOCH":"2026-04-26T07:41:38.639904","MEAN_MOTION":1.00273432,"ECCENTRICITY":0.0003451,"INCLINATION":0.3412,"RA_OF_ASC_NODE":82.5577,"ARG_OF_PERICENTER":310.6606,"MEAN_ANOMALY":315.5088,"EPHEMERIS_TYPE":0,"CLASSIFICATION_TYPE":"U","NORAD_CAT_ID":29055,"ELEMENT_SET_NO":999,"REV_AT_EPOCH":4517,"BSTAR":0,"MEAN_MOTION_DOT":1.07e-6,"MEAN_MOTION_DDOT":0},{"OBJECT_NAME":"GALAXY 16 (G-16)","OBJECT_ID":"2006-023A","EPOCH":"2026-04-26T11:23:07.562112","MEAN_MOTION":1.00274242,"ECCENTRICITY":0.0003101,"INCLINATION":0.0216,"RA_OF_ASC_NODE":228.5821,"ARG_OF_PERICENTER":180.5205,"MEAN_ANOMALY":237.1614,"EPHEMERIS_TYPE":0,"CLASSIFICATION_TYPE":"U","NORAD_CAT_ID":29236,"ELEMENT_SET_NO":999,"REV_AT_EPOCH":7245,"BSTAR":0,"MEAN_MOTION_DOT":-1.4e-6,"MEAN_MOTION_DDOT":0},{"OBJECT_NAME":"EUTELSAT 33F","OBJECT_ID":"2006-032A","EPOCH":"2026-04-26T12:00:48.949056","MEAN_MOTION":1.002744,"ECCENTRICITY":0.0003534,"INCLINATION":1.5298,"RA_OF_ASC_NODE":82.7751,"ARG_OF_PERICENTER":313.1429,"MEAN_ANOMALY":31.8951,"EPHEMERIS_TYPE":0,"CLASSIFICATION_TYPE":"U","NORAD_CAT_ID":29270,"ELEMENT_SET_NO":999,"REV_AT_EPOCH":4678,"BSTAR":0,"MEAN_MOTION_DOT":1.45e-6,"MEAN_MOTION_DDOT":0},{"OBJECT_NAME":"JCSAT-3A","OBJECT_ID":"2006-033A","EPOCH":"2026-04-26T12:52:16.217184","MEAN_MOTION":1.00271051,"ECCENTRICITY":0.0002022,"INCLINATION":0.045,"RA_OF_ASC_NODE":69.974,"ARG_OF_PERICENTER":323.2996,"MEAN_ANOMALY":142.3255,"EPHEMERIS_TYPE":0,"CLASSIFICATION_TYPE":"U","NORAD_CAT_ID":29272,"ELEMENT_SET_NO":999,"REV_AT_EPOCH":4722,"BSTAR":0,"MEAN_MOTION_DOT":-3.57e-6,"MEAN_MOTION_DDOT":0},{"OBJECT_NAME":"SYRACUSE 3B","OBJECT_ID":"2006-033B","EPOCH":"2026-04-26T12:14:02.679072","MEAN_MOTION":0.98624554,"ECCENTRICITY":0.0004429,"INCLINATION":2.7737,"RA_OF_ASC_NODE":80.7849,"ARG_OF_PERICENTER":288.0841,"MEAN_ANOMALY":108.7115,"EPHEMERIS_TYPE":0,"CLASSIFICATION_TYPE":"U","NORAD_CAT_ID":29273,"ELEMENT_SET_NO":999,"REV_AT_EPOCH":7215,"BSTAR":0,"MEAN_MOTION_DOT":2.2e-7,"MEAN_MOTION_DDOT":0}]
